[{"OBJECT_NAME":"STARLINK-3583","OBJECT_ID":"2022-022AA","EPOCH":"2026-03-09T06:37:13.104768","MEAN_MOTION":15.08841899,"ECCENTRICITY":0.00013341,"INCLINATION":53.2199,"RA_OF_ASC_NODE":10.9749,"ARG_OF_PERICENTER":84.4216,"MEAN_ANOMALY":275.6928,"EPHEMERIS_TYPE":0,"CLASSIFICATION_TYPE":"U","NORAD_CAT_ID":51876,"ELEMENT_SET_NO":999,"REV_AT_EPOCH":22305,"BSTAR":4.2388709e-5,"MEAN_MOTION_DOT":3.87e-6,"MEAN_MOTION_DDOT":0},{"OBJECT_NAME":"NEONSAT-1A","OBJECT_ID":"2026-019A","EPOCH":"2026-03-09T21:53:31.879392","MEAN_MOTION":15.0780294,"ECCENTRICITY":0.00137261,"INCLINATION":97.411,"RA_OF_ASC_NODE":192.4819,"ARG_OF_PERICENTER":167.4713,"MEAN_ANOMALY":192.686,"EPHEMERIS_TYPE":0,"CLASSIFICATION_TYPE":"U","NORAD_CAT_ID":67614,"ELEMENT_SET_NO":999,"REV_AT_EPOCH":585,"BSTAR":0.00027109929,"MEAN_MOTION_DOT":4.096e-5,"MEAN_MOTION_DDOT":0}]
